{"type":"FeatureCollection","metadata":{"scope":"Selected source-verified Limburg projects; incomplete inventory","source":"Gemeente Maastricht","retrieved":"2026-09-30"},"features":[{"type":"Feature","id":"maastricht-kpn-vikingsite","geometry":{"type":"Point","coordinates":[5.70887983,50.85129071]},"properties":{"name":"KPN-Vikingsite","municipality":"Maastricht","municipalityCode":"0935","kind":"housing and mixed use","phase":"Masterplan agreement · February 2026","homes":300,"studentRooms":43,"locationAccuracy":"Approximate street-level marker; not a project boundary","source":"Gemeente Maastricht","sourceUrl":"https://www.gemeentemaastricht.nl/stad/actueel/persbericht/voormalige-kpn-locatie-ontwikkelt-zich-tot-levendige-plek-binnen-het","locationSource":"PDOK Locatieserver · Noormannensingel street centroid","locationSourceUrl":"https://api.pdok.nl/bzk/locatieserver/search/v3_1/free?q=Noormannensingel%20Maastricht&rows=2"}}]}
